"area_name","name","address","lat","lng","input_fld_1","input_fld_2","input_fld_3","web_state"
"徳島市","南部中学校","徳島市勝占町外敷地62","34.0169567","134.5564956","徳島市","088-669-0724","770-8023","public"
"美馬市","岩倉中学校","美馬市脇町別所3406","34.06134","134.10759","美馬市","0883-52-3303","779-3620","public"
"吉野川市","川島中学校","吉野川市川島町桑村2558","34.056534","134.313721","吉野川市","0883-25-2734","779-3303","public"
"徳島市","北井上中学校","徳島市国府町西黒田字南傍示202","34.098419","134.466232","徳島市","088-642-1034","779-3102","public"
"徳島市","徳島中学校","徳島市中前川町3-16","34.08013701","134.5526949","徳島市","088-623-1371","770-0807","public"
"徳島市","城西中学校","徳島市南矢三町2-7-77","34.08160724","134.5269518","徳島市","088-631-5543","770-0005","public"
"徳島市","富田中学校","徳島市中昭和町3-77","34.05935197","134.5585859","徳島市","088-623-3737","770-0943","public"
"徳島市","城東中学校","徳島市安宅3-2-76","34.06987859","134.577507","徳島市","088-622-2413","770-0863","public"
"徳島市","津田中学校","徳島市津田西町2-2-14","34.04844821","134.5754671","徳島市","088-662-0054","770-8004","public"
"徳島市","加茂名中学校","徳島市庄町1-76-1","34.07345061","134.5120032","徳島市","088-631-8686","770-0044","public"
"徳島市","八万中学校","徳島市城南町3-4-22","34.05367934","134.5390653","徳島市","088-652-2048","770-8064","public"
"徳島市","不動中学校","徳島市不動本町2-124","34.09730778","134.5077297","徳島市","088-631-0221","770-0063","public"
"徳島市","上八万中学校","徳島市下町本丁131","34.03699228","134.4833269","徳島市","088-644-0050","779-3131","public"
"徳島市","入田中学校","徳島市入田町春日181-1","34.04146219","134.441738","徳島市","088-644-0153","779-3133","public"
"徳島市","川内中学校","徳島市川内町竹須賀151","34.10808822","134.5746609","徳島市","088-665-3471","771-0141","public"
"徳島市","応神中学校","徳島市応神町吉成字長田130-1","34.11260892","134.5302327","徳島市","088-641-1019","771-1153","public"
"徳島市","国府中学校","徳島市国府町府中68-1","34.07143082","134.4836331","徳島市","088-642-1403","779-3122","public"
"鳴門市","大麻中学校広塚分校","鳴門市大麻町板東字広塚42","34.17415098","134.506738","鳴門市","088-689-1219","779-0230","public"
"鳴門市","第一中学校","鳴門市撫養町南浜字浜田37-1","34.172417","134.605408","鳴門市","088-685-2542","772-0003","public"
"鳴門市","大麻中学校","鳴門市大麻町池谷字長田105","34.15740464","134.5287821","鳴門市","088-689-0230","779-0303","public"
"鳴門市","第二中学校","鳴門市撫養町立岩字内田150","34.17686118","134.6221567","鳴門市","088-685-7911","772-0017","public"
"鳴門市","鳴門中学校","鳴門市鳴門町三ツ石字芙蓉山下251","34.20274081","134.6105636","鳴門市","088-687-1153","772-0052","public"
"鳴門市","瀬戸中学校","鳴門市瀬戸町堂浦字地廻り壱96-4","34.21490499","134.5843726","鳴門市","088-688-0033","771-0361","public"
"鳴門市","北灘中学校","鳴門市北灘町大浦字東浦75","34.2239814","134.5258123","鳴門市","088-682-0012","771-0373","public"
"小松島市","坂野中学校","小松島市坂野町字根上り37","33.98244427","134.6316734","小松島市","0885-37-1504","773-0023","public"
"小松島市","立江中学校","小松島市立江町字鍋寺36","33.96327408","134.5993199","小松島市","0885-37-1055","773-0017","public"
"小松島市","小松島中学校","小松島市日開野町字弥三次3-1","34.00301329","134.5769311","小松島市","0885-32-2044","773-0010","public"
"阿南市","那賀川中学校","阿南市那賀川町苅屋370-1","33.94964485","134.662076","阿南市","0884-42-0058","779-1235","public"
"阿南市","阿南第二中学校","阿南市内原町竹ノ内口143-1","33.87674367","134.6284987","阿南市","0884-26-0203
","779-1401","public"
"阿南市","新野中学校","阿南市新野町馬見21","33.84468401","134.5797668","阿南市","0884-36-2040","779-1510","public"
"阿南市","伊島中学校","阿南市伊島町瀬戸3","33.84423939","134.8091724","阿南市","0884-33-0321","774-1760","public"
"阿南市","椿町中学校","阿南市椿町宮ケ谷23","33.83432551","134.6814049","阿南市","0884-33-1008","779-1750","public"
"阿南市","阿南中学校","阿南市見能林町南勘高1","33.90528775","134.6648772","阿南市","0884-22-0539","774-0017","public"
"阿南市","阿南第一中学校","阿南市長生町西方589-1","33.92684791","134.6252312","阿南市","0884-22-1404","774-0046","public"
"阿南市","加茂谷中学校","阿南市加茂町南不け1","33.91481454","134.5505372","阿南市","0884-25-0012","771-5173","public"
"阿南市","福井中学校","阿南市福井町大西141","33.83876856","134.6231584","阿南市","0884-34-2234","779-1620","public"
"阿南市","富岡東中学校","阿南市領家町走寄102-2","33.92146305","134.6647051","徳島県","0884-22-2120","774-0011","public"
"吉野川市","山川中学校","吉野川市山川町前川261","34.06153975","134.2336886","吉野川市","0883-42-3137","779-3403","public"
"吉野川市","県立川島中学校　　","吉野川市川島町桑村字岡山367-3","34.05924945","134.3248468","徳島県","0883-25-2835","779-3303","public"
"吉野川市","鴨島第一中学校","吉野川市鴨島町鴨島633-2","34.07478252","134.3477902","吉野川市","0883-24-2449","776-0010","public"
"吉野川市","鴨島東中学校","吉野川市鴨島町麻植塚215-3","34.06981827","134.3752983","吉野川市","0883-24-2034","776-0002","public"
"阿波市","阿波中学校","阿波市阿波町東原230-1","34.08567021","134.2354585","阿波市","0883-35-2040","771-1703","public"
"阿波市","市場中学校","阿波市市場町市場字上野段6-3","34.09860196","134.2868254","阿波市","0883-36-2046","771-1602","public"
"阿波市","吉野中学校","阿波市吉野町西条字大西4-1","34.09892481","134.3702754","阿波市","088-696-2039","771-1402","public"
"阿波市","土成中学校","阿波市土成町吉田字一本松の二42","34.11385188","134.3480827","阿波市","088-695-2008","771-1507","public"
"徳島市","城ノ内中学校","徳島市北田宮１丁目9-30","34.09142972","134.5458025","徳島県","088-632-3712","770-0003","public"
"美馬市","江原中学校","美馬市脇町字曽江名359-41","34.0895647","134.1720327","美馬市","0883-52-1140","779-3741","public"
"美馬市","脇町中学校","美馬市脇町大字猪尻字西ノ久保78","34.07028008","134.153509","美馬市","0883-52-1141","779-3602","public"
"美馬市","美馬中学校","美馬市美馬町字谷ヨリ西68","34.05269246","134.0493601","美馬市","0883-63-2013","771-2106","public"
"美馬市","三島中学校","美馬市穴吹町三島字三谷356","34.05547166","134.128015","美馬市","0883-52-1146","777-0003","public"
"美馬市","穴吹中学校","美馬市穴吹町穴吹字井口23","34.04367122","134.1674145","美馬市","0883-52-1046","777-0005","public"
"美馬市","木屋平中学校","美馬市木屋平字川井224","33.93482002","134.2121415","美馬市","0883-68-2671","777-0302","public"
"三好市","三野中学校","三好市三野町芝生1232","34.04093651","133.9666602","三好市","0883-77-2024","771-2304","public"
"三好市","池田中学校","三好市池田町ウエノ2861-1","34.03115867","133.8080222","三好市","0883-72-2140","778-0001","public"
"三好市","山城中学校","三好市山城町大川持544","33.96039179","133.7486961","三好市","0883-86-1109","779-5304","public"
"三好市","井川中学校","三好市井川町タクミ田100-2","34.0289367","133.8677795","三好市","0883-78-2076","779-4803","public"
"三好市","東祖谷中学校","三好市東祖谷下瀬12-1","33.87522181","133.9214986","三好市","0883-88-2216","778-0203","public"
"三好市","西祖谷中学校","三好市西祖谷山村東西岡10","33.88182237","133.7785553","三好市","0883-84-1290","778-0105","public"
"勝浦町","勝浦中学校","勝浦郡勝浦町大字久国字久保田45-1","33.93339958","134.5108056","勝浦町","0885-42-2591","771-4305","public"
"上勝町","上勝中学校","勝浦郡上勝町大字生実字東戸越73","33.89628705","134.4037826","上勝町","0885-46-0015","771-4503","public"
"佐那河内村","佐那河内中学校","名東郡佐那河内村下字中川原30","33.99238288","134.4554041","佐那河内村","088-679-2511","771-4101","public"
"石井町","高浦中学校","名西郡石井町浦庄字国実100","34.07643334","134.4210143","石井町","088-674-1219","779-3242","public"
"石井町","石井中学校","名西郡石井町高川原字高川原125-1","34.07450732","134.4399014","石井町","088-674-1344
","779-3223","public"
"神山町","神山東中学校","名西郡神山町阿野字広野22","34.03003356","134.4038872","神山町","088-678-0352","771-3201","public"
"神山町","神山中学校","名西郡神山町神領字西上角175-1","33.97275663","134.3628256","神山町","088-676-0506","771-3310","public"
"那賀町","鷲敷中学校","那賀郡那賀町和食郷字南川119","33.85744137","134.4947617","那賀町","0884-62-2016","771-5203","public"
"那賀町","相生中学校","那賀郡那賀町延野字大原100","33.8214696","134.4821505","那賀町","0884-62-0024","771-5406","public"
"那賀町","上那賀中学校","那賀郡那賀町小浜197","33.80494771","134.3724806","那賀町","0884-66-0330","771-5503","public"
"那賀町","木頭中学校","那賀郡那賀町木頭和無田字ナカスジ1","33.77295063","134.1982737","那賀町","0884-68-2100","771-6403","public"
"牟岐町","牟岐中学校","海部郡牟岐町大字川長字市宇谷100","33.67198712","134.4264752","牟岐町","0884-72-0066","775-0004","public"
"美波町","由岐中学校","海部郡美波町西の地字谷裏4","33.77711287","134.597406","美波町","0884-78-0058","779-2103","public"
"美波町","由岐中学校伊座利分校","海部郡美波町伊座利354-2","33.80594759","134.6695013","美波町","0884-78-0673","779-2107","public"
"美波町","日和佐中学校","海部郡美波町西河内字大久保76-1","33.73902336","134.531913","美波町","0884-77-0076","779-2306","public"
"松茂町","松茂中学校","板野郡松茂町笹木野字八山開拓186","34.12955545","134.5898013","松茂町","088-699-2455","771-0219","public"
"北島町","北島中学校","板野郡北島町高房字東野神ノ本25-3","34.12421813","134.5451252","北島町","088-698-2580
","771-0206","public"
"藍住町","藍住東中学校","板野郡藍住町住吉字若宮49-1","34.12857742","134.5106184","藍住町","088-692-6520","771-1266","public"
"藍住町","藍住中学校","板野郡藍住町奥野字矢上前18-1","34.12548887","134.4965186","藍住町","088-692-2505","771-1203","public"
"板野町","板野中学校","板野郡板野町大寺字郡頭11","34.14007001","134.461483","板野町","088-672-0079","779-0105","public"
"上板町","上板中学校","板野郡上板町神宅字西金屋44","34.12516203","134.4108763","上板町","088-694-2035","771-1320","public"
"つるぎ町","半田中学校","美馬郡つるぎ町半田字田井282","34.03090871","134.0298844","つるぎ町","0883-64-2013","779-4402","public"
"つるぎ町","貞光中学校","美馬郡つるぎ町貞光字中須賀52","34.03772869","134.0654452","つるぎ町","0883-62-2104","779-4101","public"
"東みよし町","三加茂中学校","三好郡東みよし町西庄字横手51","34.04195746","133.9383245","東みよし町","0883-82-2226","779-4702","public"
"東みよし町","三好中学校","三好郡東みよし町昼間1893","34.03870935","133.8755402","東みよし町","0883-79-2159","771-2501","public"
"海陽町","海陽中学校","海部郡海陽町大里字松原34-83","33.60646356","134.3636031","海陽町","0884-73-0074","775-0203","public"
"海陽町","宍喰中学校","海部郡海陽町久保字北田5","33.57177639","134.2976769","海陽町","0884-76-2048","775-0502","public"
